GPS BIIR-2  (PRN 13)    
1 24876C 97035A   23167.83090278 -.00000000  00000-0  00000-0 0  1675
2 24876  55.5743 141.4505 0068774  50.8114 314.9269  2.00564256    14
GPS BIIR-4  (PRN 20)    
1 26360C 00025A   23167.83090278 -.00000000  00000-0  00000-0 0  1678
2 26360  54.3625  63.8623 0040958 198.0159 253.9072  2.00576635    14
GPS BIIR-8  (PRN 16)    
1 27663C 03005A   23167.83090278  .00000000  00000-0  00000-0 0  1675
2 27663  55.2844 258.5759 0131361  44.6028  28.5919  2.00570771    18
GPS BIIR-9  (PRN 21)    
1 27704C 03010A   23167.83090278 -.00000000  00000-0  00000-0 0  1678
2 27704  55.1102   8.5766 0248413 316.8454 333.5280  2.00571422    19
GPS BIIR-11 (PRN 19)    
1 28190C 04009A   23167.83090278  .00000000  00000-0  00000-0 0  1676
2 28190  55.7538 319.6257 0092939 134.3363  95.5284  2.00569669    10
GPS BIIR-13 (PRN 02)    
1 28474C 04045A   23167.83090278 -.00000000  00000-0  00000-0 0  1672
2 28474  55.4367   8.8713 0161388 280.6768   1.7694  2.00577399    18
GPS BIIRM-1 (PRN 17)    
1 28874C 05038A   23167.83090278  .00000000  00000-0  00000-0 0  1678
2 28874  55.8071 317.0750 0137110 279.2183 331.5173  2.00551754    18
GPS BIIRM-2 (PRN 31)    
1 29486C 06042A   23167.83090278  .00000000  00000-0  00000-0 0  1674
2 29486  54.6892 194.8077 0101996  29.9847 121.5213  2.00574523    10
GPS BIIRM-3 (PRN 12)    
1 29601C 06052A   23167.83090278  .00000000  00000-0  00000-0 0  1674
2 29601  55.3029 257.5310 0085292  78.8096 131.1333  2.00573569    14
GPS BIIRM-4 (PRN 15)    
1 32260C 07047A   23167.83090278 -.00000000  00000-0  00000-0 0  1675
2 32260  53.4358 125.4380 0147894  68.6746 280.3759  2.00556022    13
GPS BIIRM-5 (PRN 29)    
1 32384C 07062A   23167.83090278  .00000000  00000-0  00000-0 0  1678
2 32384  55.9368 317.8845 0024503 143.3941 334.0618  2.00554818    12
GPS BIIRM-6 (PRN 07)    
1 32711C 08012A   23167.83090278  .00000000  00000-0  00000-0 0  1678
2 32711  54.4556 193.6573 0175937 235.0171 172.1107  2.00555047    18
GPS BIIRM-8 (PRN 05)    
1 35752C 09043A   23167.83090278 -.00000000  00000-0  00000-0 0  1672
2 35752  55.3646  70.8974 0058015  65.7203 359.0344  2.00562836    11
GPS BIIF-1  (PRN 25)    
1 36585C 10022A   23167.83090278  .00000000  00000-0  00000-0 0  1675
2 36585  54.5987 252.8010 0108737  59.7579 121.2663  2.00558086    19
GPS BIIF-2  (PRN 01)    
1 37753C 11036A   23167.83090278 -.00000000  00000-0  00000-0 0  1670
2 37753  56.7284  14.5464 0127056  55.1956 210.2159  2.00567933    11
GPS BIIF-3  (PRN 24)    
1 38833C 12053A   23167.83090278 -.00000000  00000-0  00000-0 0  1670
2 38833  53.5159 188.4415 0137561  50.7521 228.1564  2.00565861    11
GPS BIIF-4  (PRN 27)    
1 39166C 13023A   23167.83090278  .00000000  00000-0  00000-0 0  1677
2 39166  55.4233 313.3027 0114181  41.6260 337.6777  2.00564893    11
GPS BIIF-5  (PRN 30)    
1 39533C 14008A   23167.83090278  .00000000  00000-0  00000-0 0  1679
2 39533  53.6037 193.9894 0066774 214.2406 165.7798  2.00573808    18
GPS BIIF-6  (PRN 06)    
1 39741C 14026A   23167.83090278 -.00000000  00000-0  00000-0 0  1671
2 39741  56.6830  14.0693 0028923 313.9851 223.5287  2.00563171    16
GPS BIIF-7  (PRN 09)    
1 40105C 14045A   23167.83090278 -.00000000  00000-0  00000-0 0  1678
2 40105  54.7903 132.2503 0021854 113.4212 359.0840  2.00572546    11
GPS BIIF-8  (PRN 03)    
1 40294C 14068A   23167.83090278 -.00000000  00000-0  00000-0 0  1672
2 40294  56.1079  73.5810 0047417  58.2756 144.1605  2.00566796    12
GPS BIIF-9  (PRN 26)    
1 40534C 15013A   23167.83090278  .00000000  00000-0  00000-0 0  1679
2 40534  53.4979 249.5888 0078129  25.1270  81.7366  2.00559653    10
GPS BIIF-10 (PRN 08)    
1 40730C 15033A   23167.83090278  .00000000  00000-0  00000-0 0  1679
2 40730  54.9130 311.9555 0084114  14.0624 336.3786  2.00559842    14
GPS BIIF-11 (PRN 10)    
1 41019C 15062A   23167.83090278 -.00000000  00000-0  00000-0 0  1673
2 41019  56.0924  73.4296 0086677 221.7133  88.5774  2.00562584    19
GPS BIIF-12 (PRN 32)    
1 41328C 16007A   23167.83090278 -.00000000  00000-0  00000-0 0  1676
2 41328  54.9975 133.0095 0071340 235.0504  10.4646  2.00553990    19
GPS BIII-1  (PRN 04)    
1 43873C 18109A   23167.83090278 -.00000000  00000-0  00000-0 0  1678
2 43873  55.1741 135.5073 0024482 194.6170 303.5244  2.00565473    16
GPS BIII-2  (PRN 18)    
1 44506C 19056A   23167.83090278 -.00000000  00000-0  00000-0 0  1674
2 44506  55.8052  14.5864 0033249 182.8873 215.9469  2.00564590    10
GPS BIII-3  (PRN 23)    
1 45854C 20041A   23167.83090278 -.00000000  00000-0  00000-0 0  1677
2 45854  55.8136  71.8653 0032591 186.2338 155.9611  2.00565686    14
GPS BIII-4  (PRN 14)    
1 46826C 20078A   23167.83090278  .00000000  00000-0  00000-0 0  1676
2 46826  54.3489 255.2974 0033149 191.9499 125.7674  2.00562934    11
GPS BIII-5  (PRN 11)    
1 48859C 21054A   23167.83090278 -.00000000  00000-0  00000-0 0  1670
2 48859  55.3206  16.4100 0009863 207.5067 290.4471  2.00553980    12
GPS BIII-6  (PRN 28)    
1 55268C 23009A   23167.83090278 -.00000000  00000-0  00000-0 0  1674
2 55268  55.0946 191.5317 0004269 101.5880  81.2532  2.00560875    13
